start=new Date('2022-09-28T00:00:00.000Z').valueOf();
sats=[{"TLE_LINE2":"2 49181  69.9994 229.6319 0002462 257.0023 103.0861 14.98329042 58538","TLE_LINE1":"1 49181U 21082BD  22270.37387301  .00000287  00000-0  31832-4 0  9999","ECCENTRICITY":"0.00024620","RA_OF_ASC_NODE":"229.6319","PERIAPSIS":"570.350","MEAN_MOTION_DDOT":"0.0000000000000","NORAD_CAT_ID":"49181","SITE":"AFWTR","GP_ID":"213637001","EPOCH":"2022-09-27T08:58:22.628064","COUNTRY_CODE":"US","MEAN_MOTION":"14.98329042","ELEMENT_SET_NO":"999","REF_FRAME":"TEME","CENTER_NAME":"EARTH","MEAN_ANOMALY":"103.0861","BSTAR":"0.00003183200000","MEAN_MOTION_DOT":"0.00000287","PERIOD":"96.107","MEAN_ELEMENT_THEORY":"SGP4","DECAY_DATE":null,"TIME_SYSTEM":"UTC","OBJECT_TYPE":"PAYLOAD","ARG_OF_PERICENTER":"257.0023","OBJECT_NAME":"STARLINK-3059","OBJECT_ID":"2021-082BD","EPHEMERIS_TYPE":"0","CLASSIFICATION_TYPE":"U","LAUNCH_DATE":"2021-09-14","FILE":"3585092","APOAPSIS":"573.772","SEMIMAJOR_AXIS":"6950.196","REV_AT_EPOCH":"5853","RCS_SIZE":"LARGE","INCLINATION":"69.9994"},{"OBJECT_NAME":"STARLINK-3151","OBJECT_TYPE":"PAYLOAD","TIME_SYSTEM":"UTC","ARG_OF_PERICENTER":"51.9442","OBJECT_ID":"2021-104A","EPHEMERIS_TYPE":"0","MEAN_ELEMENT_THEORY":"SGP4","DECAY_DATE":null,"FILE":"3585196","INCLINATION":"53.2153","RCS_SIZE":"LARGE","APOAPSIS":"541.108","SEMIMAJOR_AXIS":"6917.866","REV_AT_EPOCH":"4968","CLASSIFICATION_TYPE":"U","LAUNCH_DATE":"2021-11-13","NORAD_CAT_ID":"49408","SITE":"AFETR","GP_ID":"213642839","EPOCH":"2022-09-27T21:15:15.147072","TLE_LINE1":"1 49408U 21104A   22270.88559198 -.00000500  00000-0 -13316-4 0  9994","TLE_LINE2":"2 49408  53.2153 120.1172 0001991  51.9442 308.1729 15.08844677 49682","PERIAPSIS":"538.354","MEAN_MOTION_DDOT":"0.0000000000000","ECCENTRICITY":"0.00019910","RA_OF_ASC_NODE":"120.1172","REF_FRAME":"TEME","MEAN_ANOMALY":"308.1729","CENTER_NAME":"EARTH","ELEMENT_SET_NO":"999","MEAN_MOTION_DOT":"-0.00000500","BSTAR":"-0.00001331600000","PERIOD":"95.437","COUNTRY_CODE":"US","MEAN_MOTION":"15.08844677"},{"CLASSIFICATION_TYPE":"U","LAUNCH_DATE":"2021-11-13","FILE":"3585092","REV_AT_EPOCH":"4846","SEMIMAJOR_AXIS":"6917.914","APOAPSIS":"541.072","INCLINATION":"53.2159","RCS_SIZE":"LARGE","MEAN_ELEMENT_THEORY":"SGP4","DECAY_DATE":null,"ARG_OF_PERICENTER":"50.0964","TIME_SYSTEM":"UTC","OBJECT_TYPE":"PAYLOAD","OBJECT_NAME":"STARLINK-3075","OBJECT_ID":"2021-104B","EPHEMERIS_TYPE":"0","COUNTRY_CODE":"US","MEAN_MOTION":"15.08828845","ELEMENT_SET_NO":"999","CENTER_NAME":"EARTH","MEAN_ANOMALY":"310.0192","REF_FRAME":"TEME","PERIOD":"95.438","MEAN_MOTION_DOT":"-0.00000992","BSTAR":"-0.00004421500000","TLE_LINE2":"2 49409  53.2159 124.2153 0001868  50.0964 310.0192 15.08828845 48465","TLE_LINE1":"1 49409U 21104B   22269.97296151 -.00000992  00000-0 -44215-4 0  9997","RA_OF_ASC_NODE":"124.2153","ECCENTRICITY":"0.00018680","PERIAPSIS":"538.487","MEAN_MOTION_DDOT":"0.0000000000000","NORAD_CAT_ID":"49409","EPOCH":"2022-09-26T23:21:03.874464","GP_ID":"213638277","SITE":"AFETR"},{"OBJECT_ID":"2021-104C","EPHEMERIS_TYPE":"0","OBJECT_NAME":"STARLINK-3147","OBJECT_TYPE":"PAYLOAD","TIME_SYSTEM":"UTC","ARG_OF_PERICENTER":"53.5037","DECAY_DATE":null,"MEAN_ELEMENT_THEORY":"SGP4","INCLINATION":"53.2157","RCS_SIZE":"LARGE","SEMIMAJOR_AXIS":"6917.904","APOAPSIS":"541.192","REV_AT_EPOCH":"4835","FILE":"3584345","LAUNCH_DATE":"2021-11-13","CLASSIFICATION_TYPE":"U","SITE":"AFETR","GP_ID":"213544488","EPOCH":"2022-09-26T07:16:36.308064","NORAD_CAT_ID":"49410","PERIAPSIS":"538.347","MEAN_MOTION_DDOT":"0.0000000000000","ECCENTRICITY":"0.00020560","RA_OF_ASC_NODE":"127.2236","TLE_LINE1":"1 49410U 21104C   22269.30319801 -.00000883  00000-0 -37389-4 0  9997","TLE_LINE2":"2 49410  53.2157 127.2236 0002056  53.5037 306.6145 15.08832124 48351","MEAN_MOTION_DOT":"-0.00000883","BSTAR":"-0.00003738900000","PERIOD":"95.438","REF_FRAME":"TEME","CENTER_NAME":"EARTH","MEAN_ANOMALY":"306.6145","ELEMENT_SET_NO":"999","MEAN_MOTION":"15.08832124","COUNTRY_CODE":"US"},{"FILE":"3585197","REV_AT_EPOCH":"4980","SEMIMAJOR_AXIS":"6917.858","APOAPSIS":"541.011","RCS_SIZE":"LARGE","INCLINATION":"53.2170","CLASSIFICATION_TYPE":"U","LAUNCH_DATE":"2021-11-13","ARG_OF_PERICENTER":"48.7013","TIME_SYSTEM":"UTC","OBJECT_TYPE":"PAYLOAD","OBJECT_NAME":"STARLINK-3162","OBJECT_ID":"2021-104D","EPHEMERIS_TYPE":"0","MEAN_ELEMENT_THEORY":"SGP4","DECAY_DATE":null,"ELEMENT_SET_NO":"999","MEAN_ANOMALY":"311.4139","CENTER_NAME":"EARTH","REF_FRAME":"TEME","PERIOD":"95.437","BSTAR":"-0.00000277100000","MEAN_MOTION_DOT":"-0.00000332","COUNTRY_CODE":"US","MEAN_MOTION":"15.08847207","NORAD_CAT_ID":"49411","GP_ID":"213642877","EPOCH":"2022-09-27T19:41:11.342688","SITE":"AFETR","TLE_LINE2":"2 49411  53.2170 110.4148 0001861  48.7013 311.4139 15.08847207 49802","TLE_LINE1":"1 49411U 21104D   22270.82027017 -.00000332  00000-0 -27710-5 0  9999","ECCENTRICITY":"0.00018610","RA_OF_ASC_NODE":"110.4148","MEAN_MOTION_DDOT":"0.0000000000000","PERIAPSIS":"538.436"},{"OBJECT_NAME":"STARLINK-3144","OBJECT_TYPE":"PAYLOAD","TIME_SYSTEM":"UTC","ARG_OF_PERICENTER":"67.7777","OBJECT_ID":"2021-104E","EPHEMERIS_TYPE":"0","DECAY_DATE":null,"MEAN_ELEMENT_THEORY":"SGP4","FILE":"3585280","INCLINATION":"53.2162","RCS_SIZE":"LARGE","APOAPSIS":"540.697","SEMIMAJOR_AXIS":"6917.898","REV_AT_EPOCH":"4859","CLASSIFICATION_TYPE":"U","LAUNCH_DATE":"2021-11-13","NORAD_CAT_ID":"49412","SITE":"AFETR","GP_ID":"213666673","EPOCH":"2022-09-27T19:55:45.972480","TLE_LINE1":"1 49412U 21104E   22270.83039320  .00001917  00000-0  13849-3 0  9995","TLE_LINE2":"2 49412  53.2162 120.3660 0001351  67.7777 292.3359 15.08834332 48596","MEAN_MOTION_DDOT":"0.0000000000000","PERIAPSIS":"538.828","RA_OF_ASC_NODE":"120.3660","ECCENTRICITY":"0.00013510","REF_FRAME":"TEME","CENTER_NAME":"EARTH","MEAN_ANOMALY":"292.3359","ELEMENT_SET_NO":"999","MEAN_MOTION_DOT":"0.00001917","BSTAR":"0.00013849000000","PERIOD":"95.438","COUNTRY_CODE":"US","MEAN_MOTION":"15.08834332"},{"COUNTRY_CODE":"US","MEAN_MOTION":"15.08837732","MEAN_ANOMALY":"310.2553","CENTER_NAME":"EARTH","REF_FRAME":"TEME","ELEMENT_SET_NO":"999","PERIOD":"95.438","MEAN_MOTION_DOT":"0.00000870","BSTAR":"0.00007272700000","TLE_LINE1":"1 49413U 21104F   22270.81659408  .00000870  00000-0  72727-4 0  9997","TLE_LINE2":"2 49413  53.2161 110.4255 0001694  49.8587 310.2553 15.08837732 49815","MEAN_MOTION_DDOT":"0.0000000000000","PERIAPSIS":"538.580","RA_OF_ASC_NODE":"110.4255","ECCENTRICITY":"0.00016940","NORAD_CAT_ID":"49413","EPOCH":"2022-09-27T19:35:53.728512","GP_ID":"213642912","SITE":"AFETR","CLASSIFICATION_TYPE":"U","LAUNCH_DATE":"2021-11-13","FILE":"3585217","INCLINATION":"53.2161","RCS_SIZE":"LARGE","REV_AT_EPOCH":"4981","APOAPSIS":"540.924","SEMIMAJOR_AXIS":"6917.887","DECAY_DATE":null,"MEAN_ELEMENT_THEORY":"SGP4","OBJECT_NAME":"STARLINK-3157","ARG_OF_PERICENTER":"49.8587","OBJECT_TYPE":"PAYLOAD","TIME_SYSTEM":"UTC","EPHEMERIS_TYPE":"0","OBJECT_ID":"2021-104F"},{"DECAY_DATE":null,"MEAN_ELEMENT_THEORY":"SGP4","EPHEMERIS_TYPE":"0","OBJECT_ID":"2021-104G","ARG_OF_PERICENTER":"68.8207","OBJECT_TYPE":"PAYLOAD","TIME_SYSTEM":"UTC","OBJECT_NAME":"STARLINK-3146","LAUNCH_DATE":"2021-11-13","CLASSIFICATION_TYPE":"U","REV_AT_EPOCH":"4859","SEMIMAJOR_AXIS":"6917.923","APOAPSIS":"540.930","RCS_SIZE":"LARGE","INCLINATION":"53.2167","FILE":"3585280","RA_OF_ASC_NODE":"120.0998","ECCENTRICITY":"0.00016510","MEAN_MOTION_DDOT":"0.0000000000000","PERIAPSIS":"538.645","TLE_LINE2":"2 49414  53.2167 120.0998 0001651  68.8207 291.2962 15.08826181 48598","TLE_LINE1":"1 49414U 21104G   22270.88928980  .00000386  00000-0  42387-4 0  9990","EPOCH":"2022-09-27T21:20:34.638720","GP_ID":"213667675","SITE":"AFETR","NORAD_CAT_ID":"49414","MEAN_MOTION":"15.08826181","COUNTRY_CODE":"US","PERIOD":"95.438","MEAN_MOTION_DOT":"0.00000386","BSTAR":"0.00004238700000","ELEMENT_SET_NO":"999","MEAN_ANOMALY":"291.2962","CENTER_NAME":"EARTH","REF_FRAME":"TEME"},{"MEAN_MOTION":"15.08840110","COUNTRY_CODE":"US","PERIOD":"95.438","MEAN_MOTION_DOT":"-0.00000890","BSTAR":"-0.00003782600000","ELEMENT_SET_NO":"999","CENTER_NAME":"EARTH","MEAN_ANOMALY":"315.2444","REF_FRAME":"TEME","ECCENTRICITY":"0.00019480","RA_OF_ASC_NODE":"115.7958","MEAN_MOTION_DDOT":"0.0000000000000","PERIAPSIS":"538.397","TLE_LINE2":"2 49415  53.2164 115.7958 0001948  44.8706 315.2444 15.08840110 48534","TLE_LINE1":"1 49415U 21104H   22269.62059584 -.00000890  00000-0 -37826-4 0  9990","GP_ID":"213600020","EPOCH":"2022-09-26T14:53:39.480576","SITE":"AFETR","NORAD_CAT_ID":"49415","LAUNCH_DATE":"2021-11-13","CLASSIFICATION_TYPE":"U","REV_AT_EPOCH":"4853","SEMIMAJOR_AXIS":"6917.880","APOAPSIS":"541.093","RCS_SIZE":"LARGE","INCLINATION":"53.2164","FILE":"3584555","MEAN_ELEMENT_THEORY":"SGP4","DECAY_DATE":null,"OBJECT_ID":"2021-104H","EPHEMERIS_TYPE":"0","ARG_OF_PERICENTER":"44.8706","OBJECT_TYPE":"PAYLOAD","TIME_SYSTEM":"UTC","OBJECT_NAME":"STARLINK-3159"},{"TLE_LINE2":"2 49416  53.2163 120.4198 0001530  57.0397 303.0742 15.08836708 48581","TLE_LINE1":"1 49416U 21104J   22270.81567345  .00002043  00000-0  14644-3 0  9995","RA_OF_ASC_NODE":"120.4198","ECCENTRICITY":"0.00015300","PERIAPSIS":"538.697","MEAN_MOTION_DDOT":"0.0000000000000","NORAD_CAT_ID":"49416","SITE":"AFETR","GP_ID":"213667173","EPOCH":"2022-09-27T19:34:34.186080","COUNTRY_CODE":"US","MEAN_MOTION":"15.08836708","ELEMENT_SET_NO":"999","REF_FRAME":"TEME","MEAN_ANOMALY":"303.0742","CENTER_NAME":"EARTH","BSTAR":"0.00014644000000","MEAN_MOTION_DOT":"0.00002043","PERIOD":"95.438","MEAN_ELEMENT_THEORY":"SGP4","DECAY_DATE":null,"OBJECT_TYPE":"PAYLOAD","TIME_SYSTEM":"UTC","ARG_OF_PERICENTER":"57.0397","OBJECT_NAME":"STARLINK-3133","EPHEMERIS_TYPE":"0","OBJECT_ID":"2021-104J","CLASSIFICATION_TYPE":"U","LAUNCH_DATE":"2021-11-13","FILE":"3585280","APOAPSIS":"540.814","SEMIMAJOR_AXIS":"6917.890","REV_AT_EPOCH":"4858","INCLINATION":"53.2163","RCS_SIZE":"LARGE"}];
